IRIDIUM 116             
1 43072U 17083C   25094.65008213  .00000644  00000+0  22284-3 0  9994
2 43072  86.3985 145.3473 0002174 102.1468 257.9971 14.34218269381316
IRIDIUM 130             
1 43073U 17083D   25095.17651764  .00000470  00000+0  16089-3 0  9991
2 43073  86.3991 145.3598 0001939  98.8363 261.3052 14.34220822381334
IRIDIUM 151             
1 43074U 17083E   25095.84883280  .00000754  00000+0  26199-3 0  9994
2 43074  86.3983 144.8944 0002209  99.2897 260.8548 14.34218402381451
IRIDIUM 134             
1 43075U 17083F   25095.18920122  .00000211  00000+0  68200-4 0  9997
2 43075  86.3986 145.1721 0001964  96.4228 263.7192 14.34219493381320
IRIDIUM 137             
1 43076U 17083G   25095.55072924  .00000037  00000+0  61779-5 0  9998
2 43076  86.3988 145.1049 0002476 110.3363 249.8099 14.34217202381441
IRIDIUM 141             
1 43077U 17083H   25095.19554607  .00000039  00000+0  68119-5 0  9999
2 43077  86.3983 145.1089 0002388  88.4612 271.6858 14.34218188381399
IRIDIUM 153             
1 43078U 17083J   25095.49656789  .00000027  00000+0  24983-5 0  9995
2 43078  86.3921 113.4704 0002473  80.6811 279.4664 14.34218045382545
IRIDIUM 131             
1 43079U 17083K   25094.69448190  .00000260  00000+0  85807-4 0  9992
2 43079  86.3989 145.4747 0002475  93.7846 266.3632 14.34219127381256
